2025-155V               
1 64895U 25155V   26068.85787115  .00013705  00000+0  51002-3 0  9990
2 64895  97.4485  37.2490 0008035 152.8264 207.3397 15.27583301 65579
STARLINK-36468          
1 67415U 26005M   26068.50049841  .00038811  00000+0  14119-2 0  9997
2 67415  42.9967 239.3847 0001793 290.0417  70.0242 15.27593567  8666
